[
  {
    "OBJECT_NAME": "STARLINK-1010",
    "OBJECT_ID": "19074D",
    "EPOCH": "2025-11-12T04:28:40.688256",
    "MEAN_MOTION": 16.18368381,
    "ECCENTRICITY": 0.0003637,
    "INCLINATION": 53.035,
    "RA_OF_ASC_NODE": 270.9162,
    "ARG_OF_PERICENTER": 136.7541,
    "MEAN_ANOMALY": 223.3782,
    "EPHEMERIS_TYPE": 0,
    "CLASSIFICATION_TYPE": "U",
    "NORAD_CAT_ID": 44716,
    "ELEMENT_SET_NO": 999,
    "REV_AT_EPOCH": 33218,
    "BSTAR": 0.0011593,
    "MEAN_MOTION_DOT": 0.01886495,
    "MEAN_MOTION_DDOT": 0.0038326,
    "TLE_LINE1": "1 44716U 19074D   25316.18658204  .01886495  38326-2  11593-2 0  9990",
    "TLE_LINE2": "2 44716  53.0350 270.9162 0003637 136.7541 223.3782 16.18368381332182",
    "COMMENT": "Grouped by shell and plane from TLE"
  }
]